start=new Date('2022-10-25T00:00:00.000Z').valueOf();
sats=[{"SITE":"AFWTR","TLE_LINE2":"2 51816  53.2197  99.7784 0001388  63.6349 296.4786 15.08834050 38147","RA_OF_ASC_NODE":"99.7784","ELEMENT_SET_NO":"999","EPOCH":"2022-10-24T16:37:20.861184","FILE":"3631857","PERIOD":"95.438","OBJECT_TYPE":"PAYLOAD","ARG_OF_PERICENTER":"63.6349","MEAN_MOTION_DDOT":"0.0000000000000","NORAD_CAT_ID":"51816","OBJECT_NAME":"STARLINK-3603","RCS_SIZE":"LARGE","MEAN_MOTION_DOT":"0.00002644","COUNTRY_CODE":"US","PERIAPSIS":"538.803","CENTER_NAME":"EARTH","BSTAR":"0.00018416000000","CLASSIFICATION_TYPE":"U","MEAN_ELEMENT_THEORY":"SGP4","TIME_SYSTEM":"UTC","MEAN_ANOMALY":"296.4786","SEMIMAJOR_AXIS":"6917.899","REF_FRAME":"TEME","GP_ID":"216073260","LAUNCH_DATE":"2022-02-25","DECAY_DATE":null,"INCLINATION":"53.2197","ECCENTRICITY":"0.00013880","TLE_LINE1":"1 51816U 22017BA  22297.69260256  .00002644  00000-0  18416-3 0  9990","OBJECT_ID":"2022-017BA","REV_AT_EPOCH":"3814","APOAPSIS":"540.724","EPHEMERIS_TYPE":"0","MEAN_MOTION":"15.08834050"},{"MEAN_MOTION_DOT":"-0.00008417","RCS_SIZE":"LARGE","OBJECT_NAME":"STARLINK-3596","NORAD_CAT_ID":"51817","COUNTRY_CODE":"US","OBJECT_TYPE":"PAYLOAD","MEAN_MOTION_DDOT":"0.0000000000000","ARG_OF_PERICENTER":"9.3858","ELEMENT_SET_NO":"999","RA_OF_ASC_NODE":"22.8269","PERIOD":"91.332","FILE":"3631857","EPOCH":"2022-10-24T11:29:01.137696","TLE_LINE2":"2 51817  53.2056  22.8269 0003603   9.3858 350.7231 15.76667539 39254","SITE":"AFWTR","APOAPSIS":"342.313","REV_AT_EPOCH":"3925","OBJECT_ID":"2022-017BB","MEAN_MOTION":"15.76667539","EPHEMERIS_TYPE":"0","DECAY_DATE":null,"LAUNCH_DATE":"2022-02-25","TLE_LINE1":"1 51817U 22017BB  22297.47848539 -.00008417  00000-0 -47568-4 0  9990","ECCENTRICITY":"0.00036030","INCLINATION":"53.2056","REF_FRAME":"TEME","SEMIMAJOR_AXIS":"6718.027","TIME_SYSTEM":"UTC","MEAN_ANOMALY":"350.7231","MEAN_ELEMENT_THEORY":"SGP4","CLASSIFICATION_TYPE":"U","GP_ID":"216073011","PERIAPSIS":"337.472","BSTAR":"-0.00004756800000","CENTER_NAME":"EARTH"},{"COUNTRY_CODE":"US","OBJECT_NAME":"STARLINK-3542","NORAD_CAT_ID":"51852","RCS_SIZE":"LARGE","MEAN_MOTION_DOT":"-0.00002128","ARG_OF_PERICENTER":"63.1363","MEAN_MOTION_DDOT":"0.0000000000000","OBJECT_TYPE":"PAYLOAD","EPOCH":"2022-10-24T20:29:10.499136","FILE":"3631857","PERIOD":"95.439","RA_OF_ASC_NODE":"149.0456","ELEMENT_SET_NO":"999","SITE":"AFETR","TLE_LINE2":"2 51852  53.2151 149.0456 0001671  63.1363 296.9800 15.08824942 35797","EPHEMERIS_TYPE":"0","MEAN_MOTION":"15.08824942","OBJECT_ID":"2022-022A","REV_AT_EPOCH":"3579","APOAPSIS":"540.947","INCLINATION":"53.2151","ECCENTRICITY":"0.00016710","TLE_LINE1":"1 51852U 22022A   22297.85359374 -.00002128  00000-0 -11572-3 0  9999","DECAY_DATE":null,"LAUNCH_DATE":"2022-03-03","GP_ID":"216072013","CLASSIFICATION_TYPE":"U","MEAN_ELEMENT_THEORY":"SGP4","TIME_SYSTEM":"UTC","MEAN_ANOMALY":"296.9800","SEMIMAJOR_AXIS":"6917.926","REF_FRAME":"TEME","CENTER_NAME":"EARTH","BSTAR":"-0.00011572000000","PERIAPSIS":"538.635"},{"REF_FRAME":"TEME","SEMIMAJOR_AXIS":"6917.899","TIME_SYSTEM":"UTC","MEAN_ANOMALY":"283.1169","MEAN_ELEMENT_THEORY":"SGP4","CLASSIFICATION_TYPE":"U","GP_ID":"216073264","PERIAPSIS":"538.667","BSTAR":"-0.00005598300000","CENTER_NAME":"EARTH","APOAPSIS":"540.860","REV_AT_EPOCH":"3699","OBJECT_ID":"2022-022B","MEAN_MOTION":"15.08833994","EPHEMERIS_TYPE":"0","LAUNCH_DATE":"2022-03-03","DECAY_DATE":null,"TLE_LINE1":"1 51853U 22022B   22297.85727044 -.00001179  00000-0 -55983-4 0  9993","ECCENTRICITY":"0.00015850","INCLINATION":"53.2162","ELEMENT_SET_NO":"999","RA_OF_ASC_NODE":"149.0348","PERIOD":"95.438","FILE":"3631857","EPOCH":"2022-10-24T20:34:28.166016","TLE_LINE2":"2 51853  53.2162 149.0348 0001585  77.0000 283.1169 15.08833994 36992","SITE":"AFETR","MEAN_MOTION_DOT":"-0.00001179","RCS_SIZE":"MEDIUM","NORAD_CAT_ID":"51853","OBJECT_NAME":"STARLINK-3539","COUNTRY_CODE":"US","OBJECT_TYPE":"PAYLOAD","MEAN_MOTION_DDOT":"0.0000000000000","ARG_OF_PERICENTER":"77.0000"},{"INCLINATION":"53.2156","TLE_LINE1":"1 51854U 22022C   22297.78367093 -.00003041  00000-0 -17316-3 0  9997","ECCENTRICITY":"0.00016460","DECAY_DATE":null,"LAUNCH_DATE":"2022-03-03","MEAN_MOTION":"15.08822421","EPHEMERIS_TYPE":"0","APOAPSIS":"540.938","OBJECT_ID":"2022-022C","REV_AT_EPOCH":"3704","BSTAR":"-0.00017316000000","CENTER_NAME":"EARTH","PERIAPSIS":"538.660","GP_ID":"216048347","MEAN_ELEMENT_THEORY":"SGP4","CLASSIFICATION_TYPE":"U","SEMIMAJOR_AXIS":"6917.934","REF_FRAME":"TEME","TIME_SYSTEM":"UTC","MEAN_ANOMALY":"309.1541","ARG_OF_PERICENTER":"50.9598","MEAN_MOTION_DDOT":"0.0000000000000","OBJECT_TYPE":"PAYLOAD","COUNTRY_CODE":"US","RCS_SIZE":"LARGE","OBJECT_NAME":"STARLINK-3541","NORAD_CAT_ID":"51854","MEAN_MOTION_DOT":"-0.00003041","SITE":"AFETR","TLE_LINE2":"2 51854  53.2156 149.3575 0001646  50.9598 309.1541 15.08822421 37044","EPOCH":"2022-10-24T18:48:29.168352","PERIOD":"95.439","FILE":"3631796","ELEMENT_SET_NO":"999","RA_OF_ASC_NODE":"149.3575"},{"EPHEMERIS_TYPE":"0","MEAN_MOTION":"15.08819076","OBJECT_ID":"2022-022D","REV_AT_EPOCH":"3699","APOAPSIS":"541.014","INCLINATION":"53.2174","ECCENTRICITY":"0.00017420","TLE_LINE1":"1 51855U 22022D   22297.77631902 -.00000972  00000-0 -43014-4 0  9995","LAUNCH_DATE":"2022-03-03","DECAY_DATE":null,"GP_ID":"216047073","CLASSIFICATION_TYPE":"U","MEAN_ELEMENT_THEORY":"SGP4","MEAN_ANOMALY":"308.3626","TIME_SYSTEM":"UTC","SEMIMAJOR_AXIS":"6917.944","REF_FRAME":"TEME","CENTER_NAME":"EARTH","BSTAR":"-0.00004301400000","PERIAPSIS":"538.604","COUNTRY_CODE":"US","OBJECT_NAME":"STARLINK-3545","NORAD_CAT_ID":"51855","RCS_SIZE":"LARGE","MEAN_MOTION_DOT":"-0.00000972","ARG_OF_PERICENTER":"51.7523","MEAN_MOTION_DDOT":"0.0000000000000","OBJECT_TYPE":"PAYLOAD","EPOCH":"2022-10-24T18:37:53.963328","FILE":"3631766","PERIOD":"95.439","RA_OF_ASC_NODE":"149.3961","ELEMENT_SET_NO":"999","SITE":"AFETR","TLE_LINE2":"2 51855  53.2174 149.3961 0001742  51.7523 308.3626 15.08819076 36998"},{"REV_AT_EPOCH":"3707","OBJECT_ID":"2022-022E","APOAPSIS":"540.699","EPHEMERIS_TYPE":"0","MEAN_MOTION":"15.08833014","DECAY_DATE":null,"LAUNCH_DATE":"2022-03-03","INCLINATION":"53.2170","ECCENTRICITY":"0.00013480","TLE_LINE1":"1 51856U 22022E   22297.77999499 -.00000738  00000-0 -28294-4 0  9997","CLASSIFICATION_TYPE":"U","MEAN_ELEMENT_THEORY":"SGP4","TIME_SYSTEM":"UTC","MEAN_ANOMALY":"288.7213","SEMIMAJOR_AXIS":"6917.902","REF_FRAME":"TEME","GP_ID":"216072513","PERIAPSIS":"538.834","CENTER_NAME":"EARTH","BSTAR":"-0.00002829400000","OBJECT_NAME":"STARLINK-3568","NORAD_CAT_ID":"51856","RCS_SIZE":"LARGE","MEAN_MOTION_DOT":"-0.00000738","COUNTRY_CODE":"US","OBJECT_TYPE":"PAYLOAD","ARG_OF_PERICENTER":"71.3926","MEAN_MOTION_DDOT":"0.0000000000000","RA_OF_ASC_NODE":"149.3823","ELEMENT_SET_NO":"999","EPOCH":"2022-10-24T18:43:11.567136","FILE":"3631857","PERIOD":"95.438","SITE":"AFETR","TLE_LINE2":"2 51856  53.2170 149.3823 0001348  71.3926 288.7213 15.08833014 37070"},{"MEAN_MOTION_DOT":"-0.00003053","OBJECT_NAME":"STARLINK-3571","NORAD_CAT_ID":"51857","RCS_SIZE":"LARGE","COUNTRY_CODE":"US","OBJECT_TYPE":"PAYLOAD","MEAN_MOTION_DDOT":"0.0000000000000","ARG_OF_PERICENTER":"64.9168","RA_OF_ASC_NODE":"149.4256","ELEMENT_SET_NO":"999","FILE":"3631766","PERIOD":"95.438","EPOCH":"2022-10-24T18:27:17.682624","TLE_LINE2":"2 51857  53.2171 149.4256 0001440  64.9168 295.1973 15.08831250 37044","SITE":"AFETR","OBJECT_ID":"2022-022F","REV_AT_EPOCH":"3704","APOAPSIS":"540.768","EPHEMERIS_TYPE":"0","MEAN_MOTION":"15.08831250","LAUNCH_DATE":"2022-03-03","DECAY_DATE":null,"ECCENTRICITY":"0.00014400","TLE_LINE1":"1 51857U 22022F   22297.76895466 -.00003053  00000-0 -17385-3 0  9997","INCLINATION":"53.2171","TIME_SYSTEM":"UTC","MEAN_ANOMALY":"295.1973","REF_FRAME":"TEME","SEMIMAJOR_AXIS":"6917.907","CLASSIFICATION_TYPE":"U","MEAN_ELEMENT_THEORY":"SGP4","GP_ID":"216047270","PERIAPSIS":"538.776","CENTER_NAME":"EARTH","BSTAR":"-0.00017385000000"},{"GP_ID":"216047069","TIME_SYSTEM":"UTC","MEAN_ANOMALY":"292.3735","REF_FRAME":"TEME","SEMIMAJOR_AXIS":"6917.860","CLASSIFICATION_TYPE":"U","MEAN_ELEMENT_THEORY":"SGP4","CENTER_NAME":"EARTH","BSTAR":"0.00012624000000","PERIAPSIS":"538.615","EPHEMERIS_TYPE":"0","MEAN_MOTION":"15.08846656","REV_AT_EPOCH":"3704","OBJECT_ID":"2022-022G","APOAPSIS":"540.835","ECCENTRICITY":"0.00016050","TLE_LINE1":"1 51858U 22022G   22297.77261693  .00001722  00000-0  12624-3 0  9998","INCLINATION":"53.2173","DECAY_DATE":null,"LAUNCH_DATE":"2022-03-03","FILE":"3631766","PERIOD":"95.437","EPOCH":"2022-10-24T18:32:34.102752","RA_OF_ASC_NODE":"149.4143","ELEMENT_SET_NO":"999","TLE_LINE2":"2 51858  53.2173 149.4143 0001605  67.7427 292.3735 15.08846656 37045","SITE":"AFETR","COUNTRY_CODE":"US","MEAN_MOTION_DOT":"0.00001722","OBJECT_NAME":"STARLINK-3563","NORAD_CAT_ID":"51858","RCS_SIZE":"LARGE","MEAN_MOTION_DDOT":"0.0000000000000","ARG_OF_PERICENTER":"67.7427","OBJECT_TYPE":"PAYLOAD"},{"CENTER_NAME":"EARTH","BSTAR":"-0.00006682800000","PERIAPSIS":"538.728","GP_ID":"216071764","CLASSIFICATION_TYPE":"U","MEAN_ELEMENT_THEORY":"SGP4","MEAN_ANOMALY":"270.0554","TIME_SYSTEM":"UTC","SEMIMAJOR_AXIS":"6917.890","REF_FRAME":"TEME","INCLINATION":"53.2157","ECCENTRICITY":"0.00014840","TLE_LINE1":"1 51859U 22022H   22297.72203639 -.00001351  00000-0 -66828-4 0  9996","LAUNCH_DATE":"2022-03-03","DECAY_DATE":null,"EPHEMERIS_TYPE":"0","MEAN_MOTION":"15.08836973","REV_AT_EPOCH":"3717","OBJECT_ID":"2022-022H","APOAPSIS":"540.781","SITE":"AFETR","TLE_LINE2":"2 51859  53.2157 139.6209 0001484  90.0608 270.0554 15.08836973 37174","EPOCH":"2022-10-24T17:19:43.944096","FILE":"3631857","PERIOD":"95.438","RA_OF_ASC_NODE":"139.6209","ELEMENT_SET_NO":"999","ARG_OF_PERICENTER":"90.0608","MEAN_MOTION_DDOT":"0.0000000000000","OBJECT_TYPE":"PAYLOAD","COUNTRY_CODE":"US","NORAD_CAT_ID":"51859","OBJECT_NAME":"STARLINK-3560","RCS_SIZE":"LARGE","MEAN_MOTION_DOT":"-0.00001351"}];
